*******************************************************************************
JPL/HORIZONS               114 Kassandra (A871 OA)         2020-Jun-20 08:15:49
Rec #:     114 (+COV) Soln.date: 2020-May-20_00:58:47   # obs: 2586 (1902-2020)
 
IAU76/J2000 helio. ecliptic osc. elements (au, days, deg., period=Julian yrs):
 
  EPOCH=  2453779.5 ! 2006-Feb-13.00 (TDB)         Residual RMS= .28909
   EC= .1371502487861778   QR= 2.310623348464292   TP= 2453530.3724289383
   OM= 164.3798249827053   W=  353.2428963381918   IN= 4.936283134629385
   A= 2.677897681738681    MA= 56.03184186659569   ADIST= 3.045172015013069
   PER= 4.38227            N= .224912241           ANGMOM= .027883992
   DAN= 2.31256            DDN= 3.04181            L= 157.6475629
   B= -.5800965            MOID= 1.32017004        TP= 2005-Jun-08.8724289383
 
Asteroid physical parameters (km, seconds, rotational period in hours):
   GM= n.a.                RAD= 47.089             ROTPER= 10.7431
   H= 8.3                  G= .150                 B-V= .768
                           ALBEDO= .089            STYP= Xk
 
ASTEROID comments: 
1: soln ref.= JPL#118, OCC=0
2: source=ORB
*******************************************************************************
 
 
*******************************************************************************
Ephemeris / WWW_USER Sat Jun 20 08:15:49 2020 Pasadena, USA      / Horizons
*******************************************************************************
Target body name: 114 Kassandra (A871 OA)         {source: JPL#118}
Center body name: Solar System Barycenter (0)     {source: DE431}
Center-site name: BODY CENTER
*******************************************************************************
Start time      : A.D. 1969-Jun-28 00:00:00.0000 TDB
Stop  time      : A.D. 2071-May-04 00:00:00.0000 TDB
Step-size       : 7200 minutes
*******************************************************************************
Center geodetic : 0.00000000,0.00000000,0.0000000 {E-lon(deg),Lat(deg),Alt(km)}
Center cylindric: 0.00000000,0.00000000,0.0000000 {E-lon(deg),Dxy(km),Dz(km)}
Center radii    : (undefined)                                                  
Small perturbers: Yes                             {source: SB431-N16}
Output units    : AU-D
Output type     : GEOMETRIC cartesian states
Output format   : 2 (position and velocity)
Reference frame : Ecliptic of J2000.0
*******************************************************************************
Initial IAU76/J2000 heliocentric ecliptic osculating elements (au, days, deg.):
  EPOCH=  2453779.5 ! 2006-Feb-13.00 (TDB)         Residual RMS= .28909        
   EC= .1371502487861778   QR= 2.310623348464292   TP= 2453530.3724289383      
   OM= 164.3798249827053   W=  353.2428963381918   IN= 4.936283134629385       
  Equivalent ICRF heliocentric equatorial cartesian coordinates (au, au/d):
   X=-1.681023332219543E+00  Y=-1.779535136033521E+00  Z=-5.606758543065488E-01
  VX= 7.327691380101751E-03 VY=-7.951972753338589E-03 VZ=-2.868461277427049E-03
Asteroid physical parameters (km, seconds, rotational period in hours):        
   GM= n.a.                RAD= 47.089             ROTPER= 10.7431             
   H= 8.3                  G= .150                 B-V= .768                   
                           ALBEDO= .089            STYP= Xk                    
*******************************************************************************
            JDTDB,            Calendar Date (TDB),        delta-T,                      X,                      Y,                      Z,                     VX,                     VY,                     VZ,
******************************************************************************************************************************************************************************************************************
$$SOE
2466300.500000000, A.D. 2040-May-26 00:00:00.0000,      69.185020, -1.967669942920395E+00,  1.195293035418968E+00, -5.248751231703930E-02, -6.038382259251561E-03, -1.039385115705659E-02,  1.012057763768181E-03,
2466305.500000000, A.D. 2040-May-31 00:00:00.0000,      69.184904, -1.997265722015650E+00,  1.142969461186529E+00, -4.741200410518776E-02, -5.799277408264043E-03, -1.053456416491351E-02,  1.018045292991303E-03,
2466310.500000000, A.D. 2040-Jun-05 00:00:00.0000,      69.184783, -2.025656358476920E+00,  1.089957650285654E+00, -4.230806720276038E-02, -5.556357643656466E-03, -1.066912351910812E-02,  1.023428159012211E-03,
2466315.500000000, A.D. 2040-Jun-10 00:00:00.0000,      69.184659, -2.052823269258786E+00,  1.036288699083732E+00, -3.717874048141880E-02, -5.309820551735255E-03, -1.079739928732378E-02,  1.028200272006578E-03,
2466320.500000000, A.D. 2040-Jun-15 00:00:00.0000,      69.184529, -2.078748873567513E+00,  9.819943337272072E-01, -3.202709126087003E-02, -5.059869378448230E-03, -1.091926954397750E-02,  1.032356345401762E-03,
2466325.500000000, A.D. 2040-Jun-20 00:00:00.0000,      69.184395, -2.103416620114764E+00,  9.271068693234570E-01, -2.685621125248254E-02, -4.806712608016755E-03, -1.103462067967184E-02,  1.035891911484502E-03,
2466330.500000000, A.D. 2040-Jun-25 00:00:00.0000,      69.184256, -2.126811012212724E+00,  8.716591676417182E-01, -2.166921243159436E-02, -4.550563521233364E-03, -1.114334768385039E-02,  1.038803334298542E-03,
2466335.500000000, A.D. 2040-Jun-30 00:00:00.0000,      69.184115, -2.148917630614527E+00,  8.156845934710908E-01, -1.646922285232004E-02, -4.291639735667318E-03, -1.124535439905223E-02,  1.041087819732214E-03,
2466340.500000000, A.D. 2040-Jul-05 00:00:00.0000,      69.183976, -2.169723154015272E+00,  7.592169697814147E-01, -1.125938241909833E-02, -4.030162730074468E-03, -1.134055374527096E-02,  1.042743422726692E-03,
2466345.500000000, A.D. 2040-Jul-10 00:00:00.0000,      69.183837, -2.189215377140393E+00,  7.022905318399051E-01, -6.042838629476911E-03, -3.766357355316601E-03, -1.142886791308581E-02,  1.043769051569071E-03,
2466350.500000000, A.D. 2040-Jul-15 00:00:00.0000,      69.183700, -2.207383226359615E+00,  6.449398804426094E-01, -8.227423027303669E-04, -3.500451334038097E-03, -1.151022852443349E-02,  1.044164469269653E-03,
2466355.500000000, A.D. 2040-Jul-20 00:00:00.0000,      69.183563, -2.224216772775646E+00,  5.871999344247403E-01,  4.397756691184638E-03, -3.232674751230199E-03, -1.158457676017410E-02,  1.043930292056529E-03,
2466360.500000000, A.D. 2040-Jul-25 00:00:00.0000,      69.183428, -2.239707242747134E+00,  5.291058826172124E-01,  9.615513688052286E-03, -2.963259537705395E-03, -1.165186345401309E-02,  1.043067985044152E-03,
2466365.500000000, A.D. 2040-Jul-30 00:00:00.0000,      69.183298, -2.253847025815555E+00,  4.706931354176021E-01,  1.482739345722156E-02, -2.692438948566279E-03, -1.171204915287209E-02,  1.041579855131048E-03,
2466370.500000000, A.D. 2040-Aug-04 00:00:00.0000,      69.183174, -2.266629680017068E+00,  4.119972761419384E-01,  2.003027438703829E-02, -2.420447039213697E-03, -1.176510414431902E-02,  1.039469041143854E-03,
2466375.500000000, A.D. 2040-Aug-09 00:00:00.0000,      69.183057, -2.278049934575328E+00,  3.530540123200639E-01,  2.522105261403983E-02, -2.147518142391525E-03, -1.181100845180690E-02,  1.036739501189499E-03,
2466380.500000000, A.D. 2040-Aug-14 00:00:00.0000,      69.182946, -2.288103689990651E+00,  2.938991270947461E-01,  3.039664608188091E-02, -1.873886350317345E-03, -1.184975179789281E-02,  1.033395997204189E-03,
2466385.500000000, A.D. 2040-Aug-19 00:00:00.0000,      69.182842, -2.296788015558951E+00,  2.345684308856296E-01,  3.555399851627187E-02, -1.599785004768467E-03, -1.188133353502082E-02,  1.029444076848838E-03,
2466390.500000000, A.D. 2040-Aug-24 00:00:00.0000,      69.182744, -2.304101144363890E+00,  1.750977134801190E-01,  4.069008330326714E-02, -1.325446196477930E-03, -1.190576254412647E-02,  1.024890052987643E-03,
2466395.500000000, A.D. 2040-Aug-29 00:00:00.0000,      69.182656, -2.310042465792664E+00,  1.155226967088947E-01,  4.580190725920345E-02, -1.051100275609310E-03, -1.192305710245277E-02,  1.019740980879844E-03,
2466400.500000000, A.D. 2040-Sep-03 00:00:00.0000,      69.182580, -2.314612515637789E+00,  5.587898785621612E-02,  5.088651428099774E-02, -7.769753761760345E-04, -1.193324472200460E-02,  1.014004633147750E-03,
2466405.500000000, A.D. 2040-Sep-08 00:00:00.0000,      69.182514, -2.317812963861287E+00, -3.797966050579280E-03,  5.594098886605040E-02, -5.032969569009999E-04, -1.193636195956244E-02,  1.007689472690031E-03,
2466410.500000000, A.D. 2040-Sep-13 00:00:00.0000,      69.182459, -2.319646600107451E+00, -6.347292293275711E-02,  6.096245949211095E-02, -2.302873599787330E-04, -1.193245419937616E-02,  1.000804623796774E-03,
2466415.500000000, A.D. 2040-Sep-18 00:00:00.0000,      69.182414, -2.320117317056466E+00, -1.231108892005743E-01,  6.594810184871260E-02,  4.183461115069948E-05, -1.192157541028835E-02,  9.933598416947836E-04,
2466420.500000000, A.D. 2040-Sep-23 00:00:00.0000,      69.182379, -2.319230091717069E+00, -1.826771620196021E-01,  7.089514191279070E-02,  3.128540937267516E-04, -1.190378787933258E-02,  9.853654807035373E-04,
2466425.500000000, A.D. 2040-Sep-28 00:00:00.0000,      69.182356, -2.316990964763284E+00, -2.421373701905680E-01,  7.580085886194624E-02,  5.825605458828528E-04, -1.187916192388211E-02,  9.768324611645635E-04,
2466430.500000000, A.D. 2040-Oct-03 00:00:00.0000,      69.182347, -2.313407018027161E+00, -3.014575135405340E-01,  8.066258781964079E-02,  8.507481038215070E-04, -1.184777558437135E-02,  9.677722353139900E-04,
2466435.500000000, A.D. 2040-Oct-08 00:00:00.0000,      69.182352, -2.308486350265647E+00, -3.606040007332950E-01,  8.547772242748482E-02,  1.117215914815904E-03, -1.180971429959705E-02,  9.581967522777273E-04,
